GLOBALSTAR M035         
1 25851U 99037A   25310.14214160 -.00000099  00000+0 -13440-2 0  9992
2 25851  51.9924  98.3873 0013289 207.0010 324.5559 11.04539985111948
GLOBALSTAR M032         
1 25852U 99037B   25310.17776236  .00000054  00000+0  38651-2 0  9993
2 25852  51.9953 273.7163 0012786  45.2640 314.9199 11.19066173150681
GLOBALSTAR M051         
1 25853U 99037C   25310.00015451 -.00000058  00000+0  33277-3 0  9996
2 25853  51.9811  58.7807 0001166 116.5191 243.5739 11.42206585148597
GLOBALSTAR M030         
1 25854U 99037D   25309.91363852 -.00000121  00000+0 -97937-3 0  9991
2 25854  51.9867 216.0858 0002968 316.0178  44.0402 11.55111777166422
GLOBALSTAR M048         
1 25872U 99041A   25310.31801027 -.00000053  00000+0  46961-3 0  9997
2 25872  51.9405 358.5471 0013377  71.9644   8.2540 11.33859682141107
GLOBALSTAR M026         
1 25873U 99041B   25310.03497470 -.00000091  00000+0 -98469-3 0  9993
2 25873  51.9997 215.0928 0001859 121.7449 335.7339 11.06850759164191
GLOBALSTAR M043         
1 25874U 99041C   25310.19108329 -.00000082  00000+0 -40516-3 0  9993
2 25874  51.9371 112.1475 0013556 188.5720 342.4144 11.25696602138862
GLOBALSTAR M028         
1 25875U 99041D   25310.17791536 -.00000076  00000+0  15760-3 0  9995
2 25875  51.9597 129.6708 0063611  20.7675 339.5750 12.50591174207941
